GLOBALSTAR M057         
1 25943U 99058A   24352.86519084 -.00000072  00000+0  18946-3 0  9991
2 25943  51.9959 142.7867 0002606  33.2736 326.8277 12.24805297144718
GLOBALSTAR M059         
1 25944U 99058B   24352.90807446 -.00000066  00000+0  24674-3 0  9997
2 25944  52.0041 337.5887 0000336 357.8142  12.7781 11.99973591552283
GLOBALSTAR M056         
1 25945U 99058C   24352.75512391 -.00000129  00000+0 -48234-3 0  9992
2 25945  51.9988 344.6177 0000755 178.4944 352.5302 12.04775435140758
GLOBALSTAR M031         
1 25946U 99058D   24352.45284164 -.00000042  00000+0  49424-3 0  9999
2 25946  51.9957 248.6572 0001471 127.7682  43.3620 12.16025776142433
GLOBALSTAR M039         
1 25961U 99062A   24352.68302787 -.00000082  00000+0  11867-3 0  9992
2 25961  51.9843 101.5362 0001782 310.8960  49.1752 12.62313528157293
GLOBALSTAR M034         
1 25962U 99062B   24352.86852958 -.00000059  00000+0  34336-3 0  9993
2 25962  51.9856 122.7082 0014800  62.5250 109.8566 11.79437686116998
GLOBALSTAR M029         
1 25963U 99062C   24352.90562182 -.00000073  00000+0  16543-3 0  9992
2 25963  51.9786 225.7888 0003396 105.8645 267.4719 11.99889016147362
GLOBALSTAR M061         
1 25964U 99062D   24352.93982097 -.00000059  00000+0  34576-3 0  9997
2 25964  51.9810 304.1550 0006380 348.2956  52.7217 11.76769018 99844
